start=new Date('2022-12-12T00:00:00.000Z').valueOf();
sats=[{"PERIOD":"95.592","COUNTRY_CODE":"US","NORAD_CAT_ID":"45052","MEAN_MOTION_DOT":"-0.00000741","RA_OF_ASC_NODE":"201.1110","MEAN_ANOMALY":"262.6126","ARG_OF_PERICENTER":"97.5061","REV_AT_EPOCH":"15802","RCS_SIZE":"LARGE","LAUNCH_DATE":"2020-01-29","MEAN_MOTION_DDOT":"0.0000000000000","EPOCH":"2022-12-11T20:12:34.653600","BSTAR":"-0.00003088000000","GP_ID":"220095036","MEAN_ELEMENT_THEORY":"SGP4","DECAY_DATE":null,"FILE":"3691993","CLASSIFICATION_TYPE":"U","SEMIMAJOR_AXIS":"6925.358","OBJECT_TYPE":"PAYLOAD","OBJECT_NAME":"STARLINK-1148","ECCENTRICITY":"0.00017480","PERIAPSIS":"546.012","CENTER_NAME":"EARTH","INCLINATION":"53.0559","REF_FRAME":"TEME","TIME_SYSTEM":"UTC","OBJECT_ID":"2020-006J","TLE_LINE1":"1 45052U 20006J   22345.84206775 -.00000741  00000-0 -30880-4 0  9996","APOAPSIS":"548.433","ELEMENT_SET_NO":"999","MEAN_MOTION":"15.06396954","EPHEMERIS_TYPE":"0","SITE":"AFETR","TLE_LINE2":"2 45052  53.0559 201.1110 0001748  97.5061 262.6126 15.06396954158028"},{"CLASSIFICATION_TYPE":"U","SEMIMAJOR_AXIS":"6884.027","OBJECT_TYPE":"PAYLOAD","MEAN_ELEMENT_THEORY":"SGP4","FILE":"3691993","DECAY_DATE":null,"EPOCH":"2022-12-11T18:13:06.051648","LAUNCH_DATE":"2020-01-29","MEAN_MOTION_DDOT":"0.0000000000000","BSTAR":"0.00049399000000","GP_ID":"220093784","ARG_OF_PERICENTER":"129.1609","REV_AT_EPOCH":"15826","RCS_SIZE":"LARGE","MEAN_ANOMALY":"230.9716","RA_OF_ASC_NODE":"180.4444","PERIOD":"94.738","COUNTRY_CODE":"US","NORAD_CAT_ID":"45053","MEAN_MOTION_DOT":"0.00010462","SITE":"AFETR","TLE_LINE2":"2 45053  53.0031 180.4444 0003716 129.1609 230.9716 15.19983612158266","MEAN_MOTION":"15.19983612","ELEMENT_SET_NO":"999","APOAPSIS":"508.450","EPHEMERIS_TYPE":"0","OBJECT_ID":"2020-006K","TIME_SYSTEM":"UTC","TLE_LINE1":"1 45053U 20006K   22345.75909782  .00010462  00000-0  49399-3 0  9998","REF_FRAME":"TEME","INCLINATION":"53.0031","CENTER_NAME":"EARTH","ECCENTRICITY":"0.00037160","PERIAPSIS":"503.334","OBJECT_NAME":"STARLINK-1155"},{"MEAN_ELEMENT_THEORY":"SGP4","FILE":"3691993","DECAY_DATE":null,"CLASSIFICATION_TYPE":"U","SEMIMAJOR_AXIS":"6925.376","OBJECT_TYPE":"PAYLOAD","LAUNCH_DATE":"2020-01-29","BSTAR":"0.00013838000000","MEAN_MOTION_DDOT":"0.0000000000000","EPOCH":"2022-12-11T20:07:16.224672","GP_ID":"220093535","MEAN_ANOMALY":"269.7533","ARG_OF_PERICENTER":"90.3632","REV_AT_EPOCH":"15802","RCS_SIZE":"LARGE","PERIOD":"95.593","COUNTRY_CODE":"US","MEAN_MOTION_DOT":"0.00001780","NORAD_CAT_ID":"45054","RA_OF_ASC_NODE":"201.1340","MEAN_MOTION":"15.06391126","ELEMENT_SET_NO":"999","APOAPSIS":"548.300","EPHEMERIS_TYPE":"0","SITE":"AFETR","TLE_LINE2":"2 45054  53.0551 201.1340 0001529  90.3632 269.7533 15.06391126158025","OBJECT_ID":"2020-006L","TIME_SYSTEM":"UTC","TLE_LINE1":"1 45054U 20006L   22345.83838223  .00001780  00000-0  13838-3 0  9991","CENTER_NAME":"EARTH","REF_FRAME":"TEME","INCLINATION":"53.0551","OBJECT_NAME":"STARLINK-1156","ECCENTRICITY":"0.00015290","PERIAPSIS":"546.182"},{"GP_ID":"220094786","LAUNCH_DATE":"2020-01-29","MEAN_MOTION_DDOT":"0.0000000000000","BSTAR":"0.00005388100000","EPOCH":"2022-12-11T20:28:30.642816","OBJECT_TYPE":"PAYLOAD","CLASSIFICATION_TYPE":"U","SEMIMAJOR_AXIS":"6925.363","DECAY_DATE":null,"FILE":"3691993","MEAN_ELEMENT_THEORY":"SGP4","RA_OF_ASC_NODE":"201.0747","MEAN_MOTION_DOT":"0.00000521","NORAD_CAT_ID":"45057","PERIOD":"95.592","COUNTRY_CODE":"US","RCS_SIZE":"LARGE","REV_AT_EPOCH":"15803","ARG_OF_PERICENTER":"63.6739","MEAN_ANOMALY":"296.4416","TLE_LINE1":"1 45057U 20006P   22345.85313244  .00000521  00000-0  53881-4 0  9992","TIME_SYSTEM":"UTC","OBJECT_ID":"2020-006P","TLE_LINE2":"2 45057  53.0533 201.0747 0001620  63.6739 296.4416 15.06395127158034","SITE":"AFETR","EPHEMERIS_TYPE":"0","APOAPSIS":"548.350","ELEMENT_SET_NO":"999","MEAN_MOTION":"15.06395127","ECCENTRICITY":"0.00016200","PERIAPSIS":"546.107","OBJECT_NAME":"STARLINK-1159","INCLINATION":"53.0533","REF_FRAME":"TEME","CENTER_NAME":"EARTH"},{"REV_AT_EPOCH":"15803","ARG_OF_PERICENTER":"64.0667","RCS_SIZE":"LARGE","MEAN_ANOMALY":"296.0482","RA_OF_ASC_NODE":"201.1125","PERIOD":"95.593","COUNTRY_CODE":"US","NORAD_CAT_ID":"45058","MEAN_MOTION_DOT":"0.00004481","SEMIMAJOR_AXIS":"6925.383","CLASSIFICATION_TYPE":"U","OBJECT_TYPE":"PAYLOAD","MEAN_ELEMENT_THEORY":"SGP4","FILE":"3691993","DECAY_DATE":null,"LAUNCH_DATE":"2020-01-29","EPOCH":"2022-12-11T20:17:54.263616","MEAN_MOTION_DDOT":"0.0000000000000","BSTAR":"0.00031962000000","GP_ID":"220094537","REF_FRAME":"TEME","INCLINATION":"53.0530","CENTER_NAME":"EARTH","PERIAPSIS":"546.173","ECCENTRICITY":"0.00015520","OBJECT_NAME":"STARLINK-1162","SITE":"AFETR","TLE_LINE2":"2 45058  53.0530 201.1125 0001552  64.0667 296.0482 15.06388660158035","MEAN_MOTION":"15.06388660","APOAPSIS":"548.323","ELEMENT_SET_NO":"999","EPHEMERIS_TYPE":"0","OBJECT_ID":"2020-006Q","TIME_SYSTEM":"UTC","TLE_LINE1":"1 45058U 20006Q   22345.84576694  .00004481  00000-0  31962-3 0  9996"},{"RA_OF_ASC_NODE":"201.0091","NORAD_CAT_ID":"45059","MEAN_MOTION_DOT":"0.00004826","PERIOD":"95.592","COUNTRY_CODE":"US","RCS_SIZE":"LARGE","ARG_OF_PERICENTER":"71.6662","REV_AT_EPOCH":"15803","MEAN_ANOMALY":"288.4510","GP_ID":"220093285","MEAN_MOTION_DDOT":"0.0000000000000","LAUNCH_DATE":"2020-01-29","BSTAR":"0.00034264000000","EPOCH":"2022-12-11T20:49:44.936544","OBJECT_TYPE":"PAYLOAD","CLASSIFICATION_TYPE":"U","SEMIMAJOR_AXIS":"6925.335","DECAY_DATE":null,"FILE":"3691993","MEAN_ELEMENT_THEORY":"SGP4","PERIAPSIS":"546.036","ECCENTRICITY":"0.00016810","OBJECT_NAME":"STARLINK-1165","INCLINATION":"53.0526","REF_FRAME":"TEME","CENTER_NAME":"EARTH","TLE_LINE1":"1 45059U 20006R   22345.86788121  .00004826  00000-0  34264-3 0  9990","TIME_SYSTEM":"UTC","OBJECT_ID":"2020-006R","SITE":"AFETR","TLE_LINE2":"2 45059  53.0526 201.0091 0001681  71.6662 288.4510 15.06404340158035","EPHEMERIS_TYPE":"0","APOAPSIS":"548.364","ELEMENT_SET_NO":"999","MEAN_MOTION":"15.06404340"},{"REV_AT_EPOCH":"15803","ARG_OF_PERICENTER":"63.0411","RCS_SIZE":"LARGE","MEAN_ANOMALY":"297.0749","RA_OF_ASC_NODE":"201.0262","COUNTRY_CODE":"US","PERIOD":"95.592","NORAD_CAT_ID":"45060","MEAN_MOTION_DOT":"0.00005444","SEMIMAJOR_AXIS":"6925.356","CLASSIFICATION_TYPE":"U","OBJECT_TYPE":"PAYLOAD","MEAN_ELEMENT_THEORY":"SGP4","FILE":"3691993","DECAY_DATE":null,"MEAN_MOTION_DDOT":"0.0000000000000","LAUNCH_DATE":"2020-01-29","BSTAR":"0.00038414000000","EPOCH":"2022-12-11T20:44:25.576224","GP_ID":"220094035","REF_FRAME":"TEME","INCLINATION":"53.0546","CENTER_NAME":"EARTH","ECCENTRICITY":"0.00016730","PERIAPSIS":"546.062","OBJECT_NAME":"STARLINK-1166","TLE_LINE2":"2 45060  53.0546 201.0262 0001673  63.0411 297.0749 15.06397550158031","SITE":"AFETR","MEAN_MOTION":"15.06397550","ELEMENT_SET_NO":"999","APOAPSIS":"548.380","EPHEMERIS_TYPE":"0","OBJECT_ID":"2020-006S","TIME_SYSTEM":"UTC","TLE_LINE1":"1 45060U 20006S   22345.86418491  .00005444  00000-0  38414-3 0  9990"},{"MEAN_MOTION":"15.06398225","ELEMENT_SET_NO":"999","APOAPSIS":"548.333","EPHEMERIS_TYPE":"0","SITE":"AFETR","TLE_LINE2":"2 45061  53.0538 200.9747 0001608  68.7750 291.3411 15.06398225158038","OBJECT_ID":"2020-006T","TIME_SYSTEM":"UTC","TLE_LINE1":"1 45061U 20006T   22345.87154180  .00001013  00000-0  86880-4 0  9993","CENTER_NAME":"EARTH","REF_FRAME":"TEME","INCLINATION":"53.0538","OBJECT_NAME":"STARLINK-1169","PERIAPSIS":"546.105","ECCENTRICITY":"0.00016080","MEAN_ELEMENT_THEORY":"SGP4","FILE":"3691993","DECAY_DATE":null,"SEMIMAJOR_AXIS":"6925.354","CLASSIFICATION_TYPE":"U","OBJECT_TYPE":"PAYLOAD","LAUNCH_DATE":"2020-01-29","EPOCH":"2022-12-11T20:55:01.211520","MEAN_MOTION_DDOT":"0.0000000000000","BSTAR":"0.00008688000000","GP_ID":"220094287","MEAN_ANOMALY":"291.3411","REV_AT_EPOCH":"15803","ARG_OF_PERICENTER":"68.7750","RCS_SIZE":"LARGE","PERIOD":"95.592","COUNTRY_CODE":"US","NORAD_CAT_ID":"45061","MEAN_MOTION_DOT":"0.00001013","RA_OF_ASC_NODE":"200.9747"},{"TLE_LINE2":"2 45062  53.0540 201.0635 0001573  56.1249 303.9889 15.06395729158030","SITE":"AFETR","MEAN_MOTION":"15.06395729","ELEMENT_SET_NO":"999","APOAPSIS":"548.316","EPHEMERIS_TYPE":"0","OBJECT_ID":"2020-006U","TIME_SYSTEM":"UTC","TLE_LINE1":"1 45062U 20006U   22345.85681481  .00004936  00000-0  35007-3 0  9992","REF_FRAME":"TEME","INCLINATION":"53.0540","CENTER_NAME":"EARTH","PERIAPSIS":"546.137","ECCENTRICITY":"0.00015730","OBJECT_NAME":"STARLINK-1171","CLASSIFICATION_TYPE":"U","SEMIMAJOR_AXIS":"6925.362","OBJECT_TYPE":"PAYLOAD","MEAN_ELEMENT_THEORY":"SGP4","FILE":"3691993","DECAY_DATE":null,"BSTAR":"0.00035007000000","LAUNCH_DATE":"2020-01-29","MEAN_MOTION_DDOT":"0.0000000000000","EPOCH":"2022-12-11T20:33:48.799584","GP_ID":"220095037","REV_AT_EPOCH":"15803","ARG_OF_PERICENTER":"56.1249","RCS_SIZE":"LARGE","MEAN_ANOMALY":"303.9889","RA_OF_ASC_NODE":"201.0635","COUNTRY_CODE":"US","PERIOD":"95.592","NORAD_CAT_ID":"45062","MEAN_MOTION_DOT":"0.00004936"},{"FILE":"3691993","DECAY_DATE":null,"MEAN_ELEMENT_THEORY":"SGP4","OBJECT_TYPE":"PAYLOAD","SEMIMAJOR_AXIS":"6925.377","CLASSIFICATION_TYPE":"U","GP_ID":"220093536","LAUNCH_DATE":"2020-01-29","EPOCH":"2022-12-11T20:52:23.926368","MEAN_MOTION_DDOT":"0.0000000000000","BSTAR":"0.00026127000000","MEAN_ANOMALY":"294.2764","RCS_SIZE":"LARGE","REV_AT_EPOCH":"15831","ARG_OF_PERICENTER":"65.8375","MEAN_MOTION_DOT":"0.00003611","NORAD_CAT_ID":"45064","PERIOD":"95.593","COUNTRY_CODE":"US","RA_OF_ASC_NODE":"181.0017","EPHEMERIS_TYPE":"0","MEAN_MOTION":"15.06390725","APOAPSIS":"548.234","ELEMENT_SET_NO":"999","TLE_LINE2":"2 45064  53.0528 181.0017 0001432  65.8375 294.2764 15.06390725158316","SITE":"AFETR","TLE_LINE1":"1 45064U 20006W   22345.86972137  .00003611  00000-0  26127-3 0  9998","OBJECT_ID":"2020-006W","TIME_SYSTEM":"UTC","CENTER_NAME":"EARTH","REF_FRAME":"TEME","INCLINATION":"53.0528","OBJECT_NAME":"STARLINK-1133","PERIAPSIS":"546.250","ECCENTRICITY":"0.00014320"}];
